{
  "norad_id": 28912,
  "name": "METEOSAT-9 (MSG-2)",
  "history": [
    {
      "epoch": "2026-03-28T13:17:21.413184",
      "apogee_km": 35787.09275279064,
      "perigee_km": 35785.4989372291,
      "latitude_deg": -8.199395638168143,
      "longitude_deg": 4.357125759823248,
      "semi_major_axis_km": 42164.43284500988,
      "eccentricity": 1.89e-05,
      "inclination_deg": 9.1814,
      "raan_deg": 54.9434,
      "arg_perigee_deg": 125.5968,
      "mean_anomaly_deg": 250.3933,
      "mean_motion_rev_day": 1.00272852
    }
  ]
}